start=new Date('2021-11-12T00:00:00.000Z').valueOf();
sats=[{"EPHEMERIS_TYPE":"0","OBJECT_ID":"2020-073BA","CLASSIFICATION_TYPE":"U","NORAD_CAT_ID":"46718","MEAN_ANOMALY":"281.6515","FILE":"3212485","LAUNCH_DATE":"2020-10-18","COUNTRY_CODE":"US","PERIAPSIS":"545.928","TLE_LINE2":"2 46718  53.0543 144.5554 0001856  78.4683 281.6515 15.06399924 58944","BSTAR":"0.00003716700000","MEAN_ELEMENT_THEORY":"SGP4","OBJECT_TYPE":"PAYLOAD","TLE_LINE1":"1 46718U 20073BA  21315.79691565  .00000272  00000-0  37167-4 0  9997","GP_ID":"189526008","ELEMENT_SET_NO":"999","SEMIMAJOR_AXIS":"6925.349","REV_AT_EPOCH":"5894","APOAPSIS":"548.499","PERIOD":"95.592","TIME_SYSTEM":"UTC","INCLINATION":"53.0543","RCS_SIZE":"LARGE","EPOCH":"2021-11-11T19:07:33.512160","CENTER_NAME":"EARTH","MEAN_MOTION_DOT":"0.00000272","OBJECT_NAME":"STARLINK-1821","DECAY_DATE":null,"ECCENTRICITY":"0.00018560","SITE":"AFETR","RA_OF_ASC_NODE":"144.5554","ARG_OF_PERICENTER":"78.4683","MEAN_MOTION_DDOT":"0.0000000000000","REF_FRAME":"TEME","MEAN_MOTION":"15.06399924"},{"TIME_SYSTEM":"UTC","INCLINATION":"53.0556","RCS_SIZE":"LARGE","EPOCH":"2021-11-11T20:18:32.861952","SEMIMAJOR_AXIS":"6925.371","ELEMENT_SET_NO":"999","APOAPSIS":"548.187","REV_AT_EPOCH":"5944","PERIOD":"95.593","OBJECT_NAME":"STARLINK-1822","DECAY_DATE":null,"ECCENTRICITY":"0.00013730","SITE":"AFETR","RA_OF_ASC_NODE":"109.3178","ARG_OF_PERICENTER":"163.6099","MEAN_MOTION_DDOT":"0.0000000000000","MEAN_MOTION":"15.06392632","REF_FRAME":"TEME","CENTER_NAME":"EARTH","MEAN_MOTION_DOT":"-0.00000751","LAUNCH_DATE":"2020-10-18","EPHEMERIS_TYPE":"0","OBJECT_ID":"2020-073BB","CLASSIFICATION_TYPE":"U","NORAD_CAT_ID":"46719","MEAN_ANOMALY":"196.4934","FILE":"3212485","OBJECT_TYPE":"PAYLOAD","TLE_LINE1":"1 46719U 20073BB  21315.84621368 -.00000751  00000-0 -31561-4 0  9994","GP_ID":"189526258","COUNTRY_CODE":"US","PERIAPSIS":"546.285","TLE_LINE2":"2 46719  53.0556 109.3178 0001373 163.6099 196.4934 15.06392632 59445","BSTAR":"-0.00003156100000","MEAN_ELEMENT_THEORY":"SGP4"},{"PERIOD":"93.320","APOAPSIS":"439.215","REV_AT_EPOCH":"5962","SEMIMAJOR_AXIS":"6815.180","ELEMENT_SET_NO":"999","EPOCH":"2021-11-11T16:00:08.177184","RCS_SIZE":"LARGE","TIME_SYSTEM":"UTC","INCLINATION":"53.0555","CENTER_NAME":"EARTH","MEAN_MOTION_DOT":"0.00016625","SITE":"AFETR","RA_OF_ASC_NODE":"95.2200","MEAN_MOTION":"15.43074141","REF_FRAME":"TEME","MEAN_MOTION_DDOT":"0.0000000000000","ARG_OF_PERICENTER":"64.7091","DECAY_DATE":null,"OBJECT_NAME":"STARLINK-1823","ECCENTRICITY":"0.00031850","CLASSIFICATION_TYPE":"U","FILE":"3212485","MEAN_ANOMALY":"295.4244","NORAD_CAT_ID":"46720","EPHEMERIS_TYPE":"0","OBJECT_ID":"2020-073BC","LAUNCH_DATE":"2020-10-18","TLE_LINE2":"2 46720  53.0555  95.2200 0003185  64.7091 295.4244 15.43074141 59628","PERIAPSIS":"434.874","BSTAR":"0.00037891000000","MEAN_ELEMENT_THEORY":"SGP4","COUNTRY_CODE":"US","GP_ID":"189527507","TLE_LINE1":"1 46720U 20073BC  21315.66676131  .00016625  00000-0  37891-3 0  9990","OBJECT_TYPE":"PAYLOAD"},{"MEAN_MOTION_DOT":"-0.00001271","CENTER_NAME":"EARTH","MEAN_MOTION_DDOT":"0.0000000000000","ARG_OF_PERICENTER":"80.1187","MEAN_MOTION":"15.06387029","REF_FRAME":"TEME","RA_OF_ASC_NODE":"144.1235","SITE":"AFETR","OBJECT_NAME":"STARLINK-1825","DECAY_DATE":null,"ECCENTRICITY":"0.00015410","PERIOD":"95.593","ELEMENT_SET_NO":"999","SEMIMAJOR_AXIS":"6925.388","REV_AT_EPOCH":"5895","APOAPSIS":"548.321","RCS_SIZE":"LARGE","EPOCH":"2021-11-11T21:20:15.530496","TIME_SYSTEM":"UTC","INCLINATION":"53.0540","BSTAR":"-0.00006643500000","MEAN_ELEMENT_THEORY":"SGP4","PERIAPSIS":"546.186","TLE_LINE2":"2 46722  53.0540 144.1235 0001541  80.1187 279.9976 15.06387029 58953","COUNTRY_CODE":"US","TLE_LINE1":"1 46722U 20073BE  21315.88906864 -.00001271  00000-0 -66435-4 0  9995","GP_ID":"189527758","OBJECT_TYPE":"PAYLOAD","NORAD_CAT_ID":"46722","MEAN_ANOMALY":"279.9976","FILE":"3212485","CLASSIFICATION_TYPE":"U","OBJECT_ID":"2020-073BE","EPHEMERIS_TYPE":"0","LAUNCH_DATE":"2020-10-18"},{"LAUNCH_DATE":"2020-10-18","CLASSIFICATION_TYPE":"U","FILE":"3212485","MEAN_ANOMALY":"270.4171","NORAD_CAT_ID":"46723","EPHEMERIS_TYPE":"0","OBJECT_ID":"2020-073BF","GP_ID":"189526506","TLE_LINE1":"1 46723U 20073BF  21315.71582607  .00000849  00000-0  75919-4 0  9998","OBJECT_TYPE":"PAYLOAD","TLE_LINE2":"2 46723  53.0558 104.9101 0001398  89.6978 270.4171 15.06396199 59492","PERIAPSIS":"546.257","MEAN_ELEMENT_THEORY":"SGP4","BSTAR":"0.00007591900000","COUNTRY_CODE":"US","EPOCH":"2021-11-11T17:10:47.372448","RCS_SIZE":"LARGE","INCLINATION":"53.0558","TIME_SYSTEM":"UTC","PERIOD":"95.592","REV_AT_EPOCH":"5949","APOAPSIS":"548.193","SEMIMAJOR_AXIS":"6925.360","ELEMENT_SET_NO":"999","RA_OF_ASC_NODE":"104.9101","SITE":"AFETR","REF_FRAME":"TEME","MEAN_MOTION":"15.06396199","ARG_OF_PERICENTER":"89.6978","MEAN_MOTION_DDOT":"0.0000000000000","OBJECT_NAME":"STARLINK-1826","DECAY_DATE":null,"ECCENTRICITY":"0.00013980","CENTER_NAME":"EARTH","MEAN_MOTION_DOT":"0.00000849"},{"EPHEMERIS_TYPE":"0","OBJECT_ID":"2020-073BG","CLASSIFICATION_TYPE":"U","NORAD_CAT_ID":"46724","MEAN_ANOMALY":"151.3450","FILE":"3211527","LAUNCH_DATE":"2020-10-18","COUNTRY_CODE":"US","PERIAPSIS":"147.470","TLE_LINE2":"2 46724  53.0033  65.6848 0007431 286.0999 151.3450 16.45081037 60497","BSTAR":"0.00104310000000","MEAN_ELEMENT_THEORY":"SGP4","OBJECT_TYPE":"PAYLOAD","TLE_LINE1":"1 46724U 20073BG  21315.42957142  .38167670  12538-4  10431-2 0  9993","GP_ID":"189459852","SEMIMAJOR_AXIS":"6530.458","ELEMENT_SET_NO":"999","APOAPSIS":"157.176","REV_AT_EPOCH":"6049","PERIOD":"87.534","TIME_SYSTEM":"UTC","INCLINATION":"53.0033","RCS_SIZE":"LARGE","EPOCH":"2021-11-11T10:18:34.970688","CENTER_NAME":"EARTH","MEAN_MOTION_DOT":"0.38167670","DECAY_DATE":null,"ECCENTRICITY":"0.00074310","OBJECT_NAME":"STARLINK-1827","SITE":"AFETR","RA_OF_ASC_NODE":"65.6848","ARG_OF_PERICENTER":"286.0999","MEAN_MOTION_DDOT":"0.0000125380000","REF_FRAME":"TEME","MEAN_MOTION":"16.45081037"},{"TLE_LINE1":"1 46725U 20073BH  21315.85220706 -.00000908  00000-0 -42072-4 0  9996","GP_ID":"189526756","OBJECT_TYPE":"PAYLOAD","BSTAR":"-0.00004207200000","MEAN_ELEMENT_THEORY":"SGP4","PERIAPSIS":"546.272","TLE_LINE2":"2 46725  53.0536 144.2872 0001349  80.4979 279.6163 15.06402423 58958","COUNTRY_CODE":"US","LAUNCH_DATE":"2020-10-18","MEAN_ANOMALY":"279.6163","NORAD_CAT_ID":"46725","FILE":"3212485","CLASSIFICATION_TYPE":"U","OBJECT_ID":"2020-073BH","EPHEMERIS_TYPE":"0","ARG_OF_PERICENTER":"80.4979","MEAN_MOTION_DDOT":"0.0000000000000","REF_FRAME":"TEME","MEAN_MOTION":"15.06402423","SITE":"AFETR","RA_OF_ASC_NODE":"144.2872","DECAY_DATE":null,"ECCENTRICITY":"0.00013490","OBJECT_NAME":"STARLINK-1828","MEAN_MOTION_DOT":"-0.00000908","CENTER_NAME":"EARTH","RCS_SIZE":"LARGE","EPOCH":"2021-11-11T20:27:10.689984","TIME_SYSTEM":"UTC","INCLINATION":"53.0536","PERIOD":"95.592","ELEMENT_SET_NO":"999","SEMIMAJOR_AXIS":"6925.341","REV_AT_EPOCH":"5895","APOAPSIS":"548.140"},{"TLE_LINE1":"1 46726U 20073BJ  21315.81118968  .00000847  00000-0  75884-4 0  9996","GP_ID":"189527010","OBJECT_TYPE":"PAYLOAD","MEAN_ELEMENT_THEORY":"SGP4","BSTAR":"0.00007588400000","PERIAPSIS":"542.463","TLE_LINE2":"2 46726  53.0551 129.4791 0006845   4.6060 355.4991 15.06403358 59159","COUNTRY_CODE":"US","LAUNCH_DATE":"2020-10-18","MEAN_ANOMALY":"355.4991","NORAD_CAT_ID":"46726","FILE":"3212485","CLASSIFICATION_TYPE":"U","OBJECT_ID":"2020-073BJ","EPHEMERIS_TYPE":"0","ARG_OF_PERICENTER":"4.6060","MEAN_MOTION_DDOT":"0.0000000000000","MEAN_MOTION":"15.06403358","REF_FRAME":"TEME","RA_OF_ASC_NODE":"129.4791","SITE":"AFETR","ECCENTRICITY":"0.00068450","DECAY_DATE":null,"OBJECT_NAME":"STARLINK-1829","MEAN_MOTION_DOT":"0.00000847","CENTER_NAME":"EARTH","RCS_SIZE":"LARGE","EPOCH":"2021-11-11T19:28:06.788352","INCLINATION":"53.0551","TIME_SYSTEM":"UTC","PERIOD":"95.592","ELEMENT_SET_NO":"999","SEMIMAJOR_AXIS":"6925.338","APOAPSIS":"551.944","REV_AT_EPOCH":"5915"},{"CENTER_NAME":"EARTH","MEAN_MOTION_DOT":"-0.00001055","OBJECT_NAME":"STARLINK-1830","DECAY_DATE":null,"ECCENTRICITY":"0.00012710","SITE":"AFETR","RA_OF_ASC_NODE":"104.0732","REF_FRAME":"TEME","MEAN_MOTION":"15.06408458","MEAN_MOTION_DDOT":"0.0000000000000","ARG_OF_PERICENTER":"86.4654","REV_AT_EPOCH":"5952","APOAPSIS":"548.068","SEMIMAJOR_AXIS":"6925.323","ELEMENT_SET_NO":"999","PERIOD":"95.592","TIME_SYSTEM":"UTC","INCLINATION":"53.0537","EPOCH":"2021-11-11T21:36:10.974528","RCS_SIZE":"LARGE","COUNTRY_CODE":"US","TLE_LINE2":"2 46727  53.0537 104.0732 0001271  86.4654 273.6480 15.06408458 59524","PERIAPSIS":"546.307","MEAN_ELEMENT_THEORY":"SGP4","BSTAR":"-0.00005192200000","OBJECT_TYPE":"PAYLOAD","GP_ID":"189527261","TLE_LINE1":"1 46727U 20073BK  21315.90012702 -.00001055  00000-0 -51922-4 0  9997","EPHEMERIS_TYPE":"0","OBJECT_ID":"2020-073BK","CLASSIFICATION_TYPE":"U","FILE":"3212485","NORAD_CAT_ID":"46727","MEAN_ANOMALY":"273.6480","LAUNCH_DATE":"2020-10-18"},{"CENTER_NAME":"EARTH","MEAN_MOTION_DOT":"0.00040822","RA_OF_ASC_NODE":"107.2216","SITE":"AFETR","REF_FRAME":"TEME","MEAN_MOTION":"15.57624339","ARG_OF_PERICENTER":"16.1089","MEAN_MOTION_DDOT":"0.0000000000000","DECAY_DATE":null,"OBJECT_NAME":"STARLINK-1831","ECCENTRICITY":"0.00024840","PERIOD":"92.448","APOAPSIS":"396.219","REV_AT_EPOCH":"5946","SEMIMAJOR_AXIS":"6772.672","ELEMENT_SET_NO":"999","EPOCH":"2021-11-11T19:15:27.872352","RCS_SIZE":"LARGE","INCLINATION":"53.0523","TIME_SYSTEM":"UTC","TLE_LINE2":"2 46728  53.0523 107.2216 0002484  16.1089 344.0000 15.57624339 59469","PERIAPSIS":"392.854","BSTAR":"0.00054639000000","MEAN_ELEMENT_THEORY":"SGP4","COUNTRY_CODE":"US","GP_ID":"189526009","TLE_LINE1":"1 46728U 20073BL  21315.80240593  .00040822  00000-0  54639-3 0  9998","OBJECT_TYPE":"PAYLOAD","CLASSIFICATION_TYPE":"U","FILE":"3212485","NORAD_CAT_ID":"46728","MEAN_ANOMALY":"344.0000","EPHEMERIS_TYPE":"0","OBJECT_ID":"2020-073BL","LAUNCH_DATE":"2020-10-18"}];
